#dP2021  1 11  6  0  0.00000000      96 __u+U ITR00 EXT  IAC
## 2140 108000.00000000   900.00000000 59225 0.2500000000000
+  113   C06C07C08C09C10C11C12C13C14C16C19C20C21C22C23C24C25
+        C26C27C28C29C30C32C33C34C35C36C37C39C40C43C44C45C46
+        E01E02E03E04E05E07E08E09E11E12E13E14E15E18E19E21E24
+        E25E26E27E30E31E33E36G01G02G03G04G05G06G07G08G09G10
+        G11G12G13G14G15G16G17G18G19G20G21G22G23G24G25G26G27
+        G28G29G30G31G32J01J02R01R02R03R04R05R07R08R09R11R12
+        R13R14R15R16R17R18R19R20R21R22R24  0  0  0  0  0  0
++        11 10 10  8 10  8  9 10  8 10  8  8  9  9  9  9  9
++        10  8  9 11  8  9  7  7  9  8  8 15 15 12 10 11 12
++         7  8  8  8  8  8  7  8  7  9  6  8  9  7  7  8  7
++         8  7  8  7  8  8  8  8  8  8  8  7  7  8  8  7  8
++         7  8  7 10  7  8  9  7  8  7  8  7  7  8  8  8  7
++         9  8  6  7  8  9 11  9  9  8  8 10  8  8  8  7  7
++         9  8  7  8  7  7  9  9  9  8  9  0  0  0  0  0  0
%c M  cc GPS ccc cccc cccc cccc cccc ccccc ccccc ccccc ccccc
%c cc cc ccc ccc cccc cccc cccc cccc ccccc ccccc ccccc ccccc
%f  0.0000000  0.000000000  0.00000000000  0.000000000000000
%f  0.0000000  0.000000000  0.00000000000  0.000000000000000
%i    0    0    0    0      0      0      0      0         0
%i    0    0    0    0      0      0      0      0         0
/* IAC                                ULTRA-RAPID PREDICTION
/* S/V CLOCKS ARE ALIGNED TO GNSS TIME                      
/* G:C1WC2W R:C1PC2P E:C1XC5X C:C2IC6I J:C1CC2S             
/* PCV:IGS14_2134 OL/AL:FES2004  NONE     YN ORB:CoN CLK:CoN
*  2021 01 11 14 15  0.00000000
PC06  -9214.680719  23257.789794 -33486.941407    125.760004
PC07 -21490.321256  30243.384908  19828.314893   -217.004561
PC08 -11190.184157  38486.490887  13799.737145   -884.937774
PC09   7372.323787  30851.998820 -27330.819545    810.698216
PC10  -9310.413572  30597.167654  27479.091114   -105.971343
PC11   2258.507390 -17750.696814 -21331.830736   -878.935699
PC12  17174.212946  -3021.631730 -21749.032777    723.020895
PC13  -2343.915026  42258.446998   -210.096309     93.224985
PC14  13273.654567 -16747.745088  17994.253226   -120.003554
PC16  -7337.215190  23878.022170 -33869.357679   -656.612300
PC19  -2628.718345  16697.407602 -22181.736431    687.089327
PC20 -20587.738915  14462.356727 -12036.834595   -909.338627
PC21  27092.037935  -3437.296140  -5767.363547   -788.692400
PC22  17386.532917   9338.187687 -19739.563410   -841.423793
PC23  -9958.371054 -17099.595474 -19672.078385   -882.535551
PC24  14284.370107 -20866.831397  11754.143563   -740.330416
PC25   1983.457896 -27121.920826  -6209.689490   -893.596564
PC26  16933.792907  -3938.570804  21812.546637    964.477764
PC27 -21748.825902  -5910.814314  16454.823263    464.663255
PC28 -19696.815044 -19762.531883    273.525947   -122.996774
PC29   6936.795896  21770.473028  16017.009273    337.151506
PC30 -11039.663458  11425.662340  22942.516777    429.812709
PC32 -27055.563651   3594.654128   5819.928268   -882.890409
PC33   2647.167565 -16766.373995  22153.937485   -909.923227
PC34  10502.341958 -11990.359668 -22908.478643   -765.556383
PC35  20225.958256  19199.779268     10.018241   -470.634690
PC36  -2831.651067  27130.310932   5930.227572   -779.706859
PC37 -16928.684813   2694.154399 -22010.854649   -860.627595
PC39  -3770.559770  25206.163204 -33567.949313     27.322767
PC40 -18804.934158  26328.200841  26976.924869    120.198186
PC43  -6378.999550 -21776.460150 -16259.053739   -547.283701
PC44  22033.583944   5260.664703 -16276.453744    -18.799483
PC45   9917.945154  17034.868332  19765.202514    332.479802
PC46 -13855.731052  21548.861912 -11113.343293    457.112204
PE01   9677.293387  13744.375101  24367.058726  -1022.556730
PE02  -9797.112447 -13623.352437 -24382.640713    190.272672
PE03 -21191.903209 -14653.713215  14555.328525   -386.157493
PE04  29229.844208   3480.588259   3098.293417   -686.672457
PE05   -602.603786 -17399.392303  23933.917039   -313.774815
PE07 -20142.563830   9967.947114 -19261.360974   -486.313694
PE08 -29232.703437  -3127.031492  -3404.754254   6063.606140
PE09  19960.941954 -10038.063042  19418.552085   5802.606933
PE11  10449.958501 -15565.272429 -22907.616786   6486.949481
PE12  17978.835457   6393.435211 -22615.547635   5412.012694
PE13 -10570.385470  15191.394057  23112.209903    410.064239
PE14  19915.346488 -11249.221074 -23200.064672  -1291.082929
PE15 -17941.900139  -6291.485895  22700.745383    834.784261
PE18 -14337.089506   7905.451967  16656.080327  -1411.037133
PE19  19295.342108  15410.598112 -16319.357838    175.773761
PE21  -7431.919360  24195.612202  15355.473786   -642.271967
PE24  21093.804070 -20457.835686   3412.226494   -683.967371
PE25   7573.425810 -24220.658836 -15221.090671   -524.106972
PE26   3273.065667  27923.029801   9282.482809   2277.507406
PE27 -20772.183330  20908.305843  -2841.889030     53.336644
PE30 -21663.103383   4520.270246 -19677.288331   3271.435332
PE31  21822.383713  -5332.989743  19277.437665   -477.264870
PE33  14739.831595  24064.820437  -8914.146467   -464.780943
PE36  -3017.160927 -27721.449790  -9920.036954    455.664694
PG01 -13678.867054   6772.076568  21450.209710    781.950423
PG02  13591.996421  16823.562257 -14751.936868   -564.802356
PG03 -22819.606580  12455.296400   5091.720042    -53.548961
PG04 -21557.314207   1706.339236 -15451.031109   -171.882619
PG05  17910.434653   3429.249730 -19525.574996    -30.714302
PG06   5729.181961  25539.623054  -4302.505171     -4.626974
PG07  -7333.716241  21330.089497 -13293.528280     17.584561
PG08 -24952.078412  -3927.360948   8689.632018     -6.205978
PG09 -11641.313451  11366.439137 -21060.271758   -311.602397
PG10   4547.212260 -18871.386719  18108.741144    -36.802851
PG11 -18344.804470  -1610.804172  18568.299661    -55.963106
PG12  23655.553587  -8447.951076   8141.256796     14.408787
PG13  23014.844339  13369.045194    598.477859     84.757589
PG14  -7439.121154  19156.199088  16818.406090     83.657632
PG15  25115.718825    888.526060   8776.092710   -177.053613
PG16 -16946.883456  -5587.618497 -20051.447462   -263.543227
PG17   6130.005972  17602.432331  19359.118576    378.864581
PG18   5981.166612 -23108.162201 -11592.550049    340.449428
PG19  13517.512777  18176.809446  13654.485283    -53.312209
PG20  13635.479156 -21272.926669   7663.936533    525.214012
PG21 -16079.976312  -2165.990404  21822.102450     85.871673
PG22 -22088.007386   6592.438205  13247.777548   -700.059487
PG23  14356.425539 -19950.318876   9993.825840    115.592440
PG24  15547.707326  -1975.511074  21213.074172      3.820429
PG25  19131.216539 -17768.988836  -4217.334934     57.629842
PG26  -7637.254324 -13759.320564 -21422.725713     28.335012
PG27 -23271.350367 -12759.784901  -3548.187812    -53.845006
PG28  -4527.689385  18152.262800  19494.201390    631.153423
PG29  13010.374463  -9155.836591 -21313.681823   -273.762488
PG30   -327.975160  26214.816844  -3398.153862   -367.224982
PG31  -7074.028161 -24373.881345  -7033.496196    -93.242176
PG32  -7888.986135 -17544.316539  18473.628354     13.711767
PJ01 -34627.258023  16748.937719 -12586.915693   -336.250406
PJ02 -27094.688250  31437.340110  -2800.286656      0.653142
PR01  -6540.096406  11310.953237 -21909.410498     73.343317
PR02  15923.836171   7454.017724 -18417.487209    462.445423
PR03  25244.368062   -542.573763  -3372.021926     28.940393
PR04  20176.469068  -8007.295357  13410.190156     69.553443
PR05   3829.280867 -10987.688334  22701.905856     64.542527
PR07 -25366.155815    780.186819   2842.558105    -42.134058
PR08 -20212.410193   8042.275235 -13290.850915    -56.799906
PR09  -5079.241276 -13662.582700 -20935.475411     18.016675
PR11 -13653.034373  19194.472295  -9773.188038      4.658237
PR12  -6472.395622  23275.747969   8253.890678    195.792817
PR13   4657.040118  13868.537162  20879.164940    -49.182504
PR14  13268.012746  -4109.944596  21405.273807     59.737691
PR15  13935.075406 -19163.616942   9454.261353    105.945338
PR16   5342.566944 -23174.525398  -9063.426179    -10.093079
PR17  16067.551481   9201.366080 -17548.901347    390.328909
PR18   8075.064263  -6700.909302 -23229.007684     62.801295
PR19  -3139.816930 -18739.229406 -17009.303906   -127.457991
PR20 -14372.230842 -21054.110119   1424.749793   -430.895900
PR21 -15685.706628  -8226.642243  18351.473545   -179.641952
PR22  -7407.843300   7562.092870  23196.066034    -91.926810
PR24  14875.206187  20624.737108  -2075.592234     27.388360
EOF
